SPACEMOBILE-003         
1 61045U 24163A   26200.28808455  .00001436  00000+0  79094-4 0  9998
2 61045  52.9672 161.8218 0004329 207.1995 152.8773 15.20717853102653
SPACEMOBILE-005         
1 61046U 24163B   26200.20578625  .00002447  00000+0  12446-3 0  9994
2 61046  52.9754 162.1539 0008519 208.1551 151.8984 15.20724362102633
SPACEMOBILE-001         
1 61047U 24163C   26199.28402452 -.00000022  00000+0  13735-4 0  9995
2 61047  52.9715 166.1008 0007094 203.8926 156.1740 15.20703424102499
SPACEMOBILE-002         
1 61048U 24163D   26200.05660354 -.00007112  00000+0 -30578-3 0  9992
2 61048  52.9790 162.5913 0004780 213.4370 146.6323 15.20617345102618
SPACEMOBILE-004         
1 61049U 24163E   26199.31610674  .00010492  00000+0  48447-3 0  9996
2 61049  52.9719 165.7693 0005789 237.6341 122.4093 15.20746753102506
SPACEMOBILE-006         
1 67232U 25309A   26200.22530748  .00001550  00000+0  89101-4 0  9993
2 67232  52.9939 184.8715 0009705 229.1776 130.8377 15.18666511 31461
SPACEMOBILE-008         
1 69589U 26139A   26200.05069668  .00000377  00000+0  38196-4 0  9995
2 69589  52.9951 117.9031 0005215  65.6250 294.5285 15.12805551  4809
SPACEMOBILE-009         
1 69590U 26139B   26200.18507051  .00000347  00000+0  36597-4 0  9994
2 69590  52.9942 117.3113 0005480  61.8560 298.2984 15.12699108  4820
SPACEMOBILE-010         
1 69591U 26139C   26200.05646155  .00001068  00000+0  77627-4 0  9990
2 69591  52.9947 117.9362 0005447  54.3498 305.7999 15.12537961  4815
